{
  "links" : {
    "next" : "https://api.nasa.gov/neo/rest/v1/feed?start_date=2003-05-16&end_date=2003-05-16&detailed=true&api_key=t0TVs3DtDT2H8Oy2Zy8m2eVrNsAVKAexjcZXUckd",
    "prev" : "https://api.nasa.gov/neo/rest/v1/feed?start_date=2003-05-14&end_date=2003-05-14&detailed=true&api_key=t0TVs3DtDT2H8Oy2Zy8m2eVrNsAVKAexjcZXUckd",
    "self" : "https://api.nasa.gov/neo/rest/v1/feed?start_date=2003-05-15&end_date=2003-05-15&detailed=true&api_key=t0TVs3DtDT2H8Oy2Zy8m2eVrNsAVKAexjcZXUckd"
  },
  "element_count" : 5,
  "near_earth_objects" : {
    "2003-05-15" : [ {
      "links" : {
        "self" : "https://api.nasa.gov/neo/rest/v1/neo/3563857?api_key=t0TVs3DtDT2H8Oy2Zy8m2eVrNsAVKAexjcZXUckd"
      },
      "neo_reference_id" : "3563857",
      "name" : "(2011 HP)",
      "nasa_jpl_url" : "http://ssd.jpl.nasa.gov/sbdb.cgi?sstr=3563857",
      "absolute_magnitude_h" : 22.1,
      "estimated_diameter" : {
        "kilometers" : {
          "estimated_diameter_min" : 0.1010543415,
          "estimated_diameter_max" : 0.2259643771
        },
        "meters" : {
          "estimated_diameter_min" : 101.054341542,
          "estimated_diameter_max" : 225.9643771094
        },
        "miles" : {
          "estimated_diameter_min" : 0.0627922373,
          "estimated_diameter_max" : 0.140407711
        },
        "feet" : {
          "estimated_diameter_min" : 331.5431259047,
          "estimated_diameter_max" : 741.3529669956
        }
      },
      "is_potentially_hazardous_asteroid" : false,
      "close_approach_data" : [ {
        "close_approach_date" : "2003-05-15",
        "epoch_date_close_approach" : 1052982000000,
        "relative_velocity" : {
          "kilometers_per_second" : "11.7260671762",
          "kilometers_per_hour" : "42213.8418344222",
          "miles_per_hour" : "26230.0396665053"
        },
        "miss_distance" : {
          "astronomical" : "0.1293227585",
          "lunar" : "50.3065490723",
          "kilometers" : "19346408",
          "miles" : "12021301"
        },
        "orbiting_body" : "Earth"
      } ],
      "orbital_data" : {
        "orbit_id" : "39",
        "orbit_determination_date" : "2017-04-06 08:53:40",
        "orbit_uncertainty" : "5",
        "minimum_orbit_intersection" : ".028205",
        "jupiter_tisserand_invariant" : "3.770",
        "epoch_osculation" : "2458000.5",
        "eccentricity" : ".4809970684038742",
        "semi_major_axis" : "1.92300064463241",
        "inclination" : "3.745001005558732",
        "ascending_node_longitude" : "229.6708428207938",
        "orbital_period" : "974.0193205933115",
        "perihelion_distance" : ".9980429720254604",
        "perihelion_argument" : "46.05592326658848",
        "aphelion_distance" : "2.847958317239359",
        "perihelion_time" : "2457682.624188563366",
        "mean_anomaly" : "117.4877024487375",
        "mean_motion" : ".3696025247021903",
        "equinox" : "J2000"
      }
    }, {
      "links" : {
        "self" : "https://api.nasa.gov/neo/rest/v1/neo/3763268?api_key=t0TVs3DtDT2H8Oy2Zy8m2eVrNsAVKAexjcZXUckd"
      },
      "neo_reference_id" : "3763268",
      "name" : "(2016 VR)",
      "nasa_jpl_url" : "http://ssd.jpl.nasa.gov/sbdb.cgi?sstr=3763268",
      "absolute_magnitude_h" : 26.2,
      "estimated_diameter" : {
        "kilometers" : {
          "estimated_diameter_min" : 0.0152951935,
          "estimated_diameter_max" : 0.0342010925
        },
        "meters" : {
          "estimated_diameter_min" : 15.2951935344,
          "estimated_diameter_max" : 34.201092472
        },
        "miles" : {
          "estimated_diameter_min" : 0.0095039897,
          "estimated_diameter_max" : 0.021251567
        },
        "feet" : {
          "estimated_diameter_min" : 50.1810827555,
          "estimated_diameter_max" : 112.2083122258
        }
      },
      "is_potentially_hazardous_asteroid" : false,
      "close_approach_data" : [ {
        "close_approach_date" : "2003-05-15",
        "epoch_date_close_approach" : 1052982000000,
        "relative_velocity" : {
          "kilometers_per_second" : "18.4796969577",
          "kilometers_per_hour" : "66526.909047715",
          "miles_per_hour" : "41337.234124676"
        },
        "miss_distance" : {
          "astronomical" : "0.3137113124",
          "lunar" : "122.0336990356",
          "kilometers" : "46930544",
          "miles" : "29161288"
        },
        "orbiting_body" : "Earth"
      } ],
      "orbital_data" : {
        "orbit_id" : "8",
        "orbit_determination_date" : "2017-07-21 16:08:36",
        "orbit_uncertainty" : "5",
        "minimum_orbit_intersection" : ".00656961",
        "jupiter_tisserand_invariant" : "5.372",
        "epoch_osculation" : "2458000.5",
        "eccentricity" : ".3279920750116145",
        "semi_major_axis" : "1.161242818729833",
        "inclination" : "3.494009449150936",
        "ascending_node_longitude" : "45.30424849768747",
        "orbital_period" : "457.0702859295817",
        "perihelion_distance" : ".7803643770222989",
        "perihelion_argument" : "87.94026097926843",
        "aphelion_distance" : "1.542121260437367",
        "perihelion_time" : "2458221.389464201518",
        "mean_anomaly" : "186.021928004312",
        "mean_motion" : ".7876250351033828",
        "equinox" : "J2000"
      }
    } ]
  }
}